[{"OBJECT_NAME":"OBJECT B","OBJECT_ID":"2025-108B","EPOCH":"2026-03-09T22:57:20.569248","MEAN_MOTION":15.18732481,"ECCENTRICITY":0.00118477,"INCLINATION":97.4788,"RA_OF_ASC_NODE":145.8779,"ARG_OF_PERICENTER":0.6755,"MEAN_ANOMALY":359.4493,"EPHEMERIS_TYPE":0,"CLASSIFICATION_TYPE":"U","NORAD_CAT_ID":64088,"ELEMENT_SET_NO":999,"REV_AT_EPOCH":4430,"BSTAR":0.00058992219,"MEAN_MOTION_DOT":0.00012214,"MEAN_MOTION_DDOT":0},{"OBJECT_NAME":"SL-14 R\/B","OBJECT_ID":"2009-003B","EPOCH":"2026-03-09T22:56:16.948608","MEAN_MOTION":15.18255832,"ECCENTRICITY":0.00217716,"INCLINATION":82.3842,"RA_OF_ASC_NODE":305.4853,"ARG_OF_PERICENTER":18.7466,"MEAN_ANOMALY":341.4564,"EPHEMERIS_TYPE":0,"CLASSIFICATION_TYPE":"U","NORAD_CAT_ID":33505,"ELEMENT_SET_NO":999,"REV_AT_EPOCH":94237,"BSTAR":9.9679257e-5,"MEAN_MOTION_DOT":2.085e-5,"MEAN_MOTION_DDOT":0}]
